<?xml version="1.0" encoding="UTF-8" standalone="yes"?>
<ndm>
    <oem id="CCSDS_OEM_VERS" version="2.0">
        <header>
            <CREATION_DATE>2021-336T03:19:35.559Z</CREATION_DATE>
            <ORIGINATOR>JSC</ORIGINATOR>
        </header>
        <body>
            <segment>
                <metadata>
                    <OBJECT_NAME>ISS</OBJECT_NAME>
                    <OBJECT_ID>1998-067-A</OBJECT_ID>
                    <CENTER_NAME>EARTH</CENTER_NAME>
                    <REF_FRAME>EME2000</REF_FRAME>
                    <TIME_SYSTEM>UTC</TIME_SYSTEM>
                    <START_TIME>2021-335T12:00:00.000Z</START_TIME>
                    <STOP_TIME>2021-350T12:00:00.000Z</STOP_TIME>
                </metadata>
                <data>
                    <COMMENT>Units are in kg and m^2</COMMENT>
                    <COMMENT>MASS=448187.00</COMMENT>
                    <COMMENT>DRAG_AREA=1616.04</COMMENT>
                    <COMMENT>DRAG_COEFF=1.30</COMMENT>
                    <COMMENT>SOLAR_RAD_AREA=0.00</COMMENT>
                    <COMMENT>SOLAR_RAD_COEFF=0.00</COMMENT>
                    <COMMENT>Orbits start at the ascending node epoch </COMMENT>
                    <COMMENT>ISS first asc. node: EPOCH = 2021-12-01T12:42:14.839 $ ORBIT = 3452 $ LAN(DEG) = -25.86782</COMMENT>
                    <COMMENT>ISS last asc. node : EPOCH = 2021-12-16T11:58:41.804 $ ORBIT = 3684 $ LAN(DEG) = -103.76030</COMMENT>
                    <COMMENT>Begin sequence of events</COMMENT>
                    <COMMENT>TRAJECTORY EVENT SUMMARY:</COMMENT>
                    <COMMENT></COMMENT>
                    <COMMENT>|       EVENT        |       TIG        | ORB |   DV    |   HA    |   HP    |</COMMENT>
                    <COMMENT>|                    |       GMT        |     |   M/S   |   KM    |   KM    |</COMMENT>
                    <COMMENT>|                    |                  |     |  (F/S)  |  (NM)   |  (NM)   |</COMMENT>
                    <COMMENT>=============================================================================</COMMENT>
                    <COMMENT> SASA EVA Hatch Open   336:12:10:00.000             0.0     423.2     417.3</COMMENT>
                    <COMMENT>                                                   (0.0)   (228.5)   (225.3)</COMMENT>
                    <COMMENT></COMMENT>
                    <COMMENT> SASA EVA Hatch Close  336:18:50:00.000             0.0     423.1     417.2</COMMENT>
                    <COMMENT>                                                   (0.0)   (228.5)   (225.3)</COMMENT>
                    <COMMENT></COMMENT>
                    <COMMENT> 66S Launch            342:07:38:17.000             0.0     423.4     416.6</COMMENT>
                    <COMMENT>                                                   (0.0)   (228.6)   (225.0)</COMMENT>
                    <COMMENT></COMMENT>
                    <COMMENT> 66S Docking           342:13:41:30.000             0.0     423.4     416.8</COMMENT>
                    <COMMENT>                                                   (0.0)   (228.6)   (225.0)</COMMENT>
                    <COMMENT></COMMENT>
                    <COMMENT>=============================================================================</COMMENT>
                    <COMMENT>End sequence of events</COMMENT>
                    <stateVector>
                        <EPOCH>2021-338T07:58:00.000Z</EPOCH>
                        <X units="km">5809.3266025602397</X>
                        <Y units="km">2807.1987654254999</Y>
                        <Z units="km">2142.11974369789</Z>
                        <X_DOT units="km/s">-0.53571115050819995</X_DOT>
                        <Y_DOT units="km/s">5.31200412200723</Y_DOT>
                        <Z_DOT units="km/s">-5.4926174997014501</Z_DOT>
                    </stateVector>
                    <stateVector>
                        <EPOCH>2021-338T08:02:00.000Z</EPOCH>
                        <X units="km">5471.1883686552801</X>
                        <Y units="km">3964.5739972666202</Y>
                        <Z units="km">761.87070098944605</Z>
                        <X_DOT units="km/s">-2.26495613044152</X_DOT>
                        <Y_DOT units="km/s">4.2739125605782098</Y_DOT>
                        <Z_DOT units="km/s">-5.9390859656276298</Z_DOT>
                    </stateVector>
                    <stateVector>
                        <EPOCH>2021-338T08:06:00.000Z</EPOCH>
                        <X units="km">4735.3611877043504</X>
                        <Y units="km">4833.7714560970298</Y>
                        <Z units="km">-673.921008190115</Z>
                        <X_DOT units="km/s">-3.8294370919855201</X_DOT>
                        <Y_DOT units="km/s">2.92528146782153</Y_DOT>
                        <Z_DOT units="km/s">-5.9526299230432</Z_DOT>
                    </stateVector>
                    <stateVector>
                        <EPOCH>2021-338T08:10:00.000Z</EPOCH>
                        <X units="km">3655.44002870854</X>
                        <Y units="km">5351.73093329519</Y>
                        <Z units="km">-2060.6142278617999</Z>
                        <X_DOT units="km/s">-5.1148586956190796</X_DOT>
                        <Y_DOT units="km/s">1.3649366563568499</Y_DOT>
                        <Z_DOT units="km/s">-5.5325375989041801</Z_DOT>
                    </stateVector>
                    <stateVector>
                        <EPOCH>2021-338T08:14:00.000Z</EPOCH>
                        <X units="km">2310.0957112915598</X>
                        <Y units="km">5481.11840657625</Y>
                        <Z units="km">-3297.2814508760798</Z>
                        <X_DOT units="km/s">-6.02788193754707</X_DOT>
                        <Y_DOT units="km/s">-0.29297368090974002</Y_DOT>
                        <Z_DOT units="km/s">-4.7102123614256897</Z_DOT>
                    </stateVector>
                    <stateVector>
                        <EPOCH>2021-338T08:18:00.000Z</EPOCH>
                        <X units="km">797.18108641895003</X>
                        <Y units="km">5212.9575680277403</Y>
                        <Z units="km">-4294.1310863889103</Z>
                        <X_DOT units="km/s">-6.5029321809893004</X_DOT>
                        <Y_DOT units="km/s">-1.9277925202309101</Y_DOT>
                        <Z_DOT units="km/s">-3.54639386401408</Z_DOT>
                    </stateVector>
                    <stateVector>
                        <EPOCH>2021-338T08:22:00.000Z</EPOCH>
                        <X units="km">-773.50839327019196</X>
                        <Y units="km">4567.1090431990997</Y>
                        <Z units="km">-4978.9937891637901</Z>
                        <X_DOT units="km/s">-6.5065811046169504</X_DOT>
                        <Y_DOT units="km/s">-3.4213391652257901</Y_DOT>
                        <Z_DOT units="km/s">-2.1262141294072299</Z_DOT>
                    </stateVector>
                    <stateVector>
                        <EPOCH>2021-338T08:26:00.000Z</EPOCH>
                        <X units="km">-2288.21856171422</X>
                        <Y units="km">3590.6507454705402</Y>
                        <Z units="km">-5302.4159836941999</Z>
                        <X_DOT units="km/s">-6.0393588517338204</X_DOT>
                        <Y_DOT units="km/s">-4.6662961420839499</Y_DOT>
                        <Z_DOT units="km/s">-0.55266055165525996</Z_DOT>
                    </stateVector>
                    <stateVector>
                        <EPOCH>2021-338T08:30:00.000Z</EPOCH>
                        <X units="km">-3637.36010473033</X>
                        <Y units="km">2354.37637498709</Y>
                        <Z units="km">-5241.0712632580999</Z>
                        <X_DOT units="km/s">-5.1351689111235004</X_DOT>
                        <Y_DOT units="km/s">-5.5734373693047701</Y_DOT>
                        <Z_DOT units="km/s">1.06079216296877</Z_DOT>
                    </stateVector>
                    <stateVector>
                        <EPOCH>2021-338T08:34:00.000Z</EPOCH>
                        <X units="km">-4723.2567444075503</X>
                        <Y units="km">947.72305078294505</Y>
                        <Z units="km">-4799.3556879954804</Z>
                        <X_DOT units="km/s">-3.8588315852146402</X_DOT>
                        <Y_DOT units="km/s">-6.0775065798577597</Y_DOT>
                        <Z_DOT units="km/s">2.5979234018396999</Z_DOT>
                    </stateVector>
                    <stateVector>
                        <EPOCH>2021-338T08:38:00.000Z</EPOCH>
                        <X units="km">-5467.08061258424</X>
                        <Y units="km">-527.55215832683496</Y>
                        <Z units="km">-4009.0886076689299</Z>
                        <X_DOT units="km/s">-2.3017050474648899</X_DOT>
                        <Y_DOT units="km/s">-6.1416872811891299</Y_DOT>
                        <Z_DOT units="km/s">3.9477197068816001</Z_DOT>
                    </stateVector>
                    <stateVector>
                        <EPOCH>2021-338T08:42:00.000Z</EPOCH>
                        <X units="km">-5814.5344619753896</X>
                        <Y units="km">-1964.56171507313</Y>
                        <Z units="km">-2927.3518732581902</Z>
                        <X_DOT units="km/s">-0.57575611750000999</X_DOT>
                        <Y_DOT units="km/s">-5.7603907859163996</Y_DOT>
                        <Z_DOT units="km/s">5.01192268444112</Z_DOT>
                    </stateVector>
                    
                </data>
            </segment>
        </body>
    </oem>
</ndm>
